NORAD_CAT_ID,OBJECT_NAME,OBJECT_TYPE,EPOCH,MEAN_MOTION,ECCENTRICITY,INCLINATION,RA_OF_ASC_NODE,ARG_OF_PERICENTER,MEAN_ANOMALY,BSTAR,MEAN_MOTION_DOT,MEAN_MOTION_DDOT,TLE_LINE0,TLE_LINE1,TLE_LINE2,SEMIMAJOR_AXIS,PERIOD,APOGEE,PERIGEE,DECAYED
53871.0,STARLINK-4740,PAYLOAD,2023-04-28 21:02:04,15.08840034,5.9e-05,53.2178,278.7038,120.7743,239.3307,-0.00011824,-2.169e-05,0.0,0 STARLINK-4740,1 53871U 22114BF  23118.87643934 -.00002169  00000-0 -11824-3 0  9992,2 53871  53.2178 278.7038 0000590 120.7743 239.3307 15.08840034 34978,6917.88,95.438,540.153,539.337,0.0
53871.0,STARLINK-4740,PAYLOAD,2023-04-29 03:23:36,15.08846995,4.87e-05,53.217,277.5152,122.1285,237.9754,-7.6098e-05,-1.499e-05,0.0,0 STARLINK-4740,1 53871U 22114BF  23119.14139209 -.00001499  00000-0 -76098-4 0  9998,2 53871  53.2170 277.5152 0000487 122.1285 237.9754 15.08846995 35014,6917.859,95.437,540.061,539.387,0.0
53871.0,STARLINK-4740,PAYLOAD,2023-04-29 12:55:54,15.08855009,6.16e-05,53.2173,275.7311,101.0695,259.0367,4.8131e-05,4.79e-06,0.0,0 STARLINK-4740,1 53871U 22114BF  23119.53882235  .00000479  00000-0  48131-4 0  9997,2 53871  53.2173 275.7311 0000616 101.0695 259.0367 15.08855009 35616,6917.835,95.437,540.126,539.273,0.0
53871.0,STARLINK-4740,PAYLOAD,2023-04-29 20:52:48,15.08864853,3.05e-05,53.2174,274.2421,114.2334,245.869,0.00010577,1.397e-05,0.0,0 STARLINK-4740,1 53871U 22114BF  23119.87000929  .00001397  00000-0  10577-3 0  9998,2 53871  53.2174 274.2421 0000305 114.2334 245.8690 15.08864853 35129,6917.804,95.436,539.88,539.458,0.0
53871.0,STARLINK-4740,PAYLOAD,2023-04-30 09:35:55,15.08832321,8.47e-05,53.2173,271.8649,100.7725,259.3363,9.9657e-05,1.298e-05,0.0,0 STARLINK-4740,1 53871U 22114BF  23120.39994898  .00001298  00000-0  99657-4 0  9991,2 53871  53.2173 271.8649 0000847 100.7725 259.3363 15.08832321 35748,6917.904,95.438,540.355,539.183,0.0
53871.0,STARLINK-4740,PAYLOAD,2023-04-30 14:22:05,15.08832328,6.37e-05,53.2173,270.973,68.3278,291.7781,9.1874e-05,1.175e-05,0.0,0 STARLINK-4740,1 53871U 22114BF  23120.59867010  .00001175  00000-0  91874-4 0  9995,2 53871  53.2173 270.9730 0000637  68.3278 291.7781 15.08832328 35233,6917.904,95.438,540.21,539.328,0.0
53871.0,STARLINK-4740,PAYLOAD,2023-04-30 19:08:13,15.08841993,5.57e-05,53.2175,270.0801,100.3006,259.8049,8.6236e-05,1.085e-05,0.0,0 STARLINK-4740,1 53871U 22114BF  23120.79738363  .00001085  00000-0  86236-4 0  9991,2 53871  53.2175 270.0801 0000557 100.3006 259.8049 15.08841993 35265,6917.874,95.437,540.125,539.354,0.0
53871.0,STARLINK-4740,PAYLOAD,2023-04-30 22:19:00,15.08844498,6.64e-05,53.2172,269.4855,70.3109,289.7954,8.0444e-05,9.93e-06,0.0,0 STARLINK-4740,1 53871U 22114BF  23120.92986265  .00000993  00000-0  80444-4 0  9994,2 53871  53.2172 269.4855 0000664  70.3109 289.7954 15.08844498 35824,6917.867,95.437,540.191,539.272,0.0
53871.0,STARLINK-4740,PAYLOAD,2023-05-01 14:12:52,15.08841811,9.8e-05,53.2175,266.5122,115.1226,244.9868,-0.00011224,-2.074e-05,0.0,0 STARLINK-4740,1 53871U 22114BF  23121.59227004 -.00002074  00000-0 -11224-3 0  9990,2 53871  53.2175 266.5122 0000980 115.1226 244.9868 15.08841811 35385,6917.875,95.437,540.418,539.062,0.0
53871.0,STARLINK-4740,PAYLOAD,2023-05-01 17:23:38,15.08844509,8.75e-05,53.2177,265.9159,56.0957,304.0118,-0.00016289,-2.879e-05,0.0,0 STARLINK-4740,1 53871U 22114BF  23121.72475101 -.00002879  00000-0 -16289-3 0  9997,2 53871  53.2177 265.9159 0000875  56.0957 304.0118 15.08844509 35942,6917.867,95.437,540.337,539.126,0.0
53871.0,STARLINK-4740,PAYLOAD,2023-05-02 09:17:29,15.08841881,5.97e-05,53.2166,262.9428,87.0382,273.0679,5.8118e-05,6.38e-06,0.0,0 STARLINK-4740,1 53871U 22114BF  23122.38714146  .00000638  00000-0  58118-4 0  9992,2 53871  53.2166 262.9428 0000597  87.0382 273.0679 15.08841881 35502,6917.875,95.437,540.153,539.327,0.0
53871.0,STARLINK-4740,PAYLOAD,2023-05-02 14:03:37,15.08848405,7.1e-05,53.2165,262.052,66.4125,293.6942,7.361e-05,8.84e-06,0.0,0 STARLINK-4740,1 53871U 22114BF  23122.58585647  .00000884  00000-0  73610-4 0  9993,2 53871  53.2165 262.0520 0000710  66.4125 293.6942 15.08848405 36071,6917.855,95.437,540.211,539.229,0.0
53871.0,STARLINK-4740,PAYLOAD,2023-05-02 15:39:00,15.08850509,5.38e-05,53.2164,261.7534,94.1266,265.9788,7.0064e-05,8.28e-06,0.0,0 STARLINK-4740,1 53871U 22114BF  23122.65209407  .00000828  00000-0  70064-4 0  9996,2 53871  53.2164 261.7534 0000538  94.1266 265.9788 15.08850509 35542,6917.848,95.437,540.085,539.341,0.0
53871.0,STARLINK-4740,PAYLOAD,2023-05-03 13:54:25,15.08835594,7.7e-05,53.2181,257.5892,128.8816,231.2245,-5.119e-05,-1.102e-05,0.0,0 STARLINK-4740,1 53871U 22114BF  23123.57946749 -.00001102  00000-0 -51190-4 0  9992,2 53871  53.2181 257.5892 0000770 128.8816 231.2245 15.08835594 35681,6917.894,95.438,540.292,539.226,0.0
53871.0,STARLINK-4740,PAYLOAD,2023-05-03 20:15:58,15.08838883,5.83e-05,53.2172,256.4031,83.5813,276.5245,-1.916e-05,-5.92e-06,0.0,0 STARLINK-4740,1 53871U 22114BF  23123.84442546 -.00000592  00000-0 -19160-4 0  9991,2 53871  53.2172 256.4031 0000583  83.5813 276.5245 15.08838883 36261,6917.884,95.438,540.152,539.345,0.0
53871.0,STARLINK-4740,PAYLOAD,2023-05-04 13:45:13,15.08840643,5.81e-05,53.2174,253.1326,71.2088,288.8967,-8.4056e-05,-1.625e-05,0.0,0 STARLINK-4740,1 53871U 22114BF  23124.57306793 -.00001625  00000-0 -84056-4 0  9999,2 53871  53.2174 253.1326 0000581  71.2088 288.8967 15.08840643 36376,6917.878,95.438,540.145,539.341,0.0
53871.0,STARLINK-4740,PAYLOAD,2023-05-04 18:31:21,15.08847905,5.76e-05,53.2196,252.2419,76.3311,283.7745,-3.5655e-05,-8.55e-06,0.0,0 STARLINK-4740,1 53871U 22114BF  23124.77178142 -.00000855  00000-0 -35655-4 0  9991,2 53871  53.2196 252.2419 0000576  76.3311 283.7745 15.08847905 35861,6917.856,95.437,540.12,539.323,0.0
53871.0,STARLINK-4740,PAYLOAD,2023-05-05 15:11:23,15.0883404,5.74e-05,53.2192,248.3768,68.8657,291.2397,6.3705e-05,7.26e-06,0.0,0 STARLINK-4740,1 53871U 22114BF  23125.63290836  .00000726  00000-0  63705-4 0  9994,2 53871  53.2192 248.3768 0000574  68.8657 291.2397 15.08834040 35994,6917.899,95.438,540.161,539.367,0.0
53871.0,STARLINK-4740,PAYLOAD,2023-05-05 18:22:09,15.08839002,6e-05,53.2197,247.7822,85.0452,275.0608,9.5764e-05,1.237e-05,0.0,0 STARLINK-4740,1 53871U 22114BF  23125.76538423  .00001237  00000-0  95764-4 0  9993,2 53871  53.2197 247.7822 0000600  85.0452 275.0608 15.08839002 36558,6917.883,95.438,540.164,539.333,0.0
53871.0,STARLINK-4740,PAYLOAD,2023-05-06 00:43:42,15.08828469,6.04e-05,53.2174,246.5909,94.4325,265.6736,-5.2519e-05,-1.123e-05,0.0,0 STARLINK-4740,1 53871U 22114BF  23126.03035613 -.00001123  00000-0 -52519-4 0  9994,2 53871  53.2174 246.5909 0000604  94.4325 265.6736 15.08828469 36050,6917.916,95.438,540.198,539.363,0.0
53871.0,STARLINK-4740,PAYLOAD,2023-05-06 13:26:47,15.08838917,5.55e-05,53.2174,244.2117,85.5573,274.5483,-6.6884e-06,-3.94e-06,0.0,0 STARLINK-4740,1 53871U 22114BF  23126.56027054 -.00000394  00000-0 -66884-5 0  9992,2 53871  53.2174 244.2117 0000555  85.5573 274.5483 15.08838917 36672,6917.884,95.438,540.133,539.365,0.0
53871.0,STARLINK-4740,PAYLOAD,2023-05-07 13:17:34,15.08838027,7.99e-05,53.2186,239.7551,73.8691,286.2389,-4.0318e-05,-9.29e-06,0.0,0 STARLINK-4740,1 53871U 22114BF  23127.55387342 -.00000929  00000-0 -40318-4 0  9998,2 53871  53.2186 239.7551 0000799  73.8691 286.2389 15.08838027 36821,6917.886,95.438,540.304,539.199,0.0
53871.0,STARLINK-4740,PAYLOAD,2023-05-07 14:52:57,15.08855821,0.0001002,53.218,239.4604,74.2068,285.9035,-0.00022608,-3.886e-05,0.0,0 STARLINK-4740,1 53871U 22114BF  23127.62010962 -.00003886  00000-0 -22608-3 0  9993,2 53871  53.2180 239.4604 0001002  74.2068 285.9035 15.08855821 36298,6917.832,95.437,540.39,539.004,0.0
53871.0,STARLINK-4740,PAYLOAD,2023-05-08 00:25:16,15.08840258,5.36e-05,53.217,237.6712,74.8124,285.2927,-4.4034e-05,-9.88e-06,0.0,0 STARLINK-4740,1 53871U 22114BF  23128.01755099 -.00000988  00000-0 -44034-4 0  9992,2 53871  53.2170 237.6712 0000536  74.8124 285.2927 15.08840258 36355,6917.88,95.438,540.115,539.374,0.0
53871.0,STARLINK-4740,PAYLOAD,2023-05-08 14:43:44,15.08838888,7.66e-05,53.2171,234.9938,63.4577,296.6494,1.136e-05,-1.07e-06,0.0,0 STARLINK-4740,1 53871U 22114BF  23128.61371298 -.00000107  00000-0  11360-4 0  9991,2 53871  53.2171 234.9938 0000766  63.4577 296.6494 15.08838888 36987,6917.884,95.438,540.279,539.219,0.0
53871.0,STARLINK-4740,PAYLOAD,2023-05-09 12:59:08,15.08841638,8.68e-05,53.2174,230.8312,61.0136,299.0943,-5.1495e-06,-3.7e-06,0.0,0 STARLINK-4740,1 53871U 22114BF  23129.54107217 -.00000370  00000-0 -51495-5 0  9999,2 53871  53.2174 230.8312 0000868  61.0136 299.0943 15.08841638 37129,6917.875,95.437,540.341,539.14,0.0
53871.0,STARLINK-4740,PAYLOAD,2023-05-10 12:49:55,15.08841406,8.08e-05,53.2172,226.3707,78.8465,281.2618,-6.287e-05,-1.288e-05,0.0,0 STARLINK-4740,1 53871U 22114BF  23130.53467497 -.00001288  00000-0 -62870-4 0  9996,2 53871  53.2172 226.3707 0000808  78.8465 281.2618 15.08841406 37271,6917.876,95.437,540.3,539.182,0.0
53871.0,STARLINK-4740,PAYLOAD,2023-05-10 17:36:04,15.08849221,8.54e-05,53.2184,225.4699,109.2906,250.8178,1.8521e-05,7e-08,0.0,0 STARLINK-4740,1 53871U 22114BF  23130.73338424  .00000007  00000-0  18521-4 0  9995,2 53871  53.2184 225.4699 0000854 109.2906 250.8178 15.08849221 36763,6917.852,95.437,540.308,539.126,0.0
53871.0,STARLINK-4740,PAYLOAD,2023-05-10 23:57:37,15.08837821,8.35e-05,53.2173,224.2893,68.5445,291.5636,-3.3655e-06,-3.41e-06,0.0,0 STARLINK-4740,1 53871U 22114BF  23130.99835338 -.00000341  00000-0 -33655-5 0  9998,2 53871  53.2173 224.2893 0000835  68.5445 291.5636 15.08837821 36807,6917.887,95.438,540.33,539.174,0.0
53871.0,STARLINK-4740,PAYLOAD,2023-05-11 11:05:19,15.0884057,9.84e-05,53.2178,222.2078,67.4744,292.6352,9.7246e-06,-1.33e-06,0.0,0 STARLINK-4740,1 53871U 22114BF  23131.46203167 -.00000133  00000-0  97246-5 0  9994,2 53871  53.2178 222.2078 0000984  67.4744 292.6352 15.08840570 37410,6917.879,95.438,540.424,539.063,0.0
